[{"OBJECT_NAME":"STARLINK-4417","OBJECT_ID":"2022-084M","EPOCH":"2026-03-09T17:53:39.725952","MEAN_MOTION":15.05649534,"ECCENTRICITY":9.057e-5,"INCLINATION":97.6031,"RA_OF_ASC_NODE":131.2277,"ARG_OF_PERICENTER":118.3866,"MEAN_ANOMALY":241.7452,"EPHEMERIS_TYPE":0,"CLASSIFICATION_TYPE":"U","NORAD_CAT_ID":53200,"ELEMENT_SET_NO":999,"REV_AT_EPOCH":20004,"BSTAR":-6.874592e-6,"MEAN_MOTION_DOT":-1.6e-6,"MEAN_MOTION_DDOT":0},{"OBJECT_NAME":"MINOTAUR 4 R\/B","OBJECT_ID":"2020-046E","EPOCH":"2026-03-09T23:21:28.488960","MEAN_MOTION":15.06543892,"ECCENTRICITY":0.00095926,"INCLINATION":53.9792,"RA_OF_ASC_NODE":306.0413,"ARG_OF_PERICENTER":86.078,"MEAN_ANOMALY":274.1318,"EPHEMERIS_TYPE":0,"CLASSIFICATION_TYPE":"U","NORAD_CAT_ID":45877,"ELEMENT_SET_NO":999,"REV_AT_EPOCH":23396,"BSTAR":0.00016618262,"MEAN_MOTION_DOT":2.204e-5,"MEAN_MOTION_DDOT":0}]
